STARLINK-30353
1 58113U 23161S   25358.15287404  .00000007  00000+0  12347-4 0  9992
2 58113  53.1592 156.6034 0000994  97.5977 262.5136 15.30198203122851